SAUDISAT 1C             
1 27607U 02058C   23014.12827278  .00002676  00000+0  38281-3 0  9999
2 27607  64.5566  17.0160 0079765 254.6578 104.5700 14.76592114 79689
SAUDISAT 2              
1 28371U 04025F   23014.32562544  .00000565  00000+0  14254-3 0  9997
2 28371  98.4083 336.8317 0025602 173.8602 186.2922 14.54700335983943
SAUDISAT 3              
1 31118U 07012B   23014.40599642  .00000692  00000+0  12495-3 0  9993
2 31118  97.9965 321.6435 0013823 241.9635 118.0174 14.69467207844130
PISAT                   
1 41784U 16059B   23014.05400645  .00001504  00000+0  29250-3 0  9999
2 41784  97.8907  53.9354 0030695 221.5563 138.3307 14.64211357336508
FLYING LAPTOP           
1 42831U 17042G   23014.11661456  .00002676  00000+0  26649-3 0  9992
2 42831  97.3983 221.1052 0014384  28.3321 331.8691 14.92318517299508
SALSAT                  
1 46495U 20068K   23013.72506136  .00006757  00000+0  47010-3 0  9992
2 46495  97.7541 320.4906 0014648 286.5757  73.3861 15.05734039125812
